{
  "type": "FeatureCollection",
  "features": [
    {
      "type": "Feature",
      "properties": {
        "norad_id": 30040,
        "name": "FENGYUN 1C DEB",
        "group": "fengyun-1c-debris",
        "lat": 33.30809849589935,
        "lon": 5.51250402140062,
        "alt_km": 772.0124500869479,
        "timestamp": "2025-12-20T22:39:10.900030+00:00",
        "meta_object_name": "FENGYUN 1C DEB",
        "meta_object_id": "1999-025NR",
        "meta_epoch": "2025-12-20T14:41:47.852160",
        "meta_mean_motion": 14.37187191,
        "meta_eccentricity": 0.00322913,
        "meta_inclination": 98.2327,
        "meta_ra_of_asc_node": 10.6541,
        "meta_arg_of_pericenter": 288.7824,
        "meta_mean_anomaly": 190.4247,
        "meta_ephemeris_type": 0,
        "meta_classification_type": "U",
        "meta_norad_cat_id": 30040,
        "meta_element_set_no": 999,
        "meta_rev_at_epoch": 98041,
        "meta_bstar": 0.0010646944,
        "meta_mean_motion_dot": 3.146e-05,
        "meta_mean_motion_ddot": 0,
        "tle_line1": "1 30040U 99025NR  25354.61235940  .00003146  00000+0  10647-2 0  9994",
        "tle_line2": "2 30040  98.2327  10.6541 0032291 288.7824 190.4247 14.37187191980414"
      },
      "geometry": {
        "type": "Point",
        "coordinates": [
          5.51250402140062,
          33.30809849589935
        ]
      }
    },
    {
      "type": "Feature",
      "properties": {
        "norad_id": 30041,
        "name": "FENGYUN 1C DEB",
        "group": "fengyun-1c-debris",
        "lat": -9.541868895450747,
        "lon": 103.5200325539892,
        "alt_km": 875.6417552148114,
        "timestamp": "2025-12-20T22:39:10.900038+00:00",
        "meta_object_name": "FENGYUN 1C DEB",
        "meta_object_id": "1999-025NS",
        "meta_epoch": "2025-12-20T05:59:54.238848",
        "meta_mean_motion": 14.1319783,
        "meta_eccentricity": 0.0035093,
        "meta_inclination": 99.4671,
        "meta_ra_of_asc_node": 101.1793,
        "meta_arg_of_pericenter": 196.3632,
        "meta_mean_anomaly": 225.4019,
        "meta_ephemeris_type": 0,
        "meta_classification_type": "U",
        "meta_norad_cat_id": 30041,
        "meta_element_set_no": 999,
        "meta_rev_at_epoch": 97393,
        "meta_bstar": 0.00035324,
        "meta_mean_motion_dot": 6.16e-06,
        "meta_mean_motion_ddot": 0,
        "tle_line1": "1 30041U 99025NS  25354.24993332  .00000616  00000+0  35324-3 0  9999",
        "tle_line2": "2 30041  99.4671 101.1793 0035093 196.3632 225.4019 14.13197830973939"
      },
      "geometry": {
        "type": "Point",
        "coordinates": [
          103.5200325539892,
          -9.541868895450747
        ]
      }
    },
    {
      "type": "Feature",
      "properties": {
        "norad_id": 30043,
        "name": "FENGYUN 1C DEB",
        "group": "fengyun-1c-debris",
        "lat": -51.199615005180746,
        "lon": 103.6418900427604,
        "alt_km": 1009.8724939263939,
        "timestamp": "2025-12-20T22:39:10.900047+00:00",
        "meta_object_name": "FENGYUN 1C DEB",
        "meta_object_id": "1999-025NU",
        "meta_epoch": "2025-12-19T19:55:00.501888",
        "meta_mean_motion": 14.23607082,
        "meta_eccentricity": 0.0283562,
        "meta_inclination": 98.6278,
        "meta_ra_of_asc_node": 91.6629,
        "meta_arg_of_pericenter": 110.4105,
        "meta_mean_anomaly": 252.7768,
        "meta_ephemeris_type": 0,
        "meta_classification_type": "U",
        "meta_norad_cat_id": 30043,
        "meta_element_set_no": 999,
        "meta_rev_at_epoch": 97446,
        "meta_bstar": 0.00049868402,
        "meta_mean_motion_dot": 1.675e-05,
        "meta_mean_motion_ddot": 0,
        "tle_line1": "1 30043U 99025NU  25353.82986692  .00001675  00000+0  49868-3 0  9999",
        "tle_line2": "2 30043  98.6278  91.6629 0283562 110.4105 252.7768 14.23607082974463"
      },
      "geometry": {
        "type": "Point",
        "coordinates": [
          103.6418900427604,
          -51.199615005180746
        ]
      }
    },
    {
      "type": "Feature",
      "properties": {
        "norad_id": 30044,
        "name": "FENGYUN 1C DEB",
        "group": "fengyun-1c-debris",
        "lat": -81.23349667992171,
        "lon": -15.487992573263744,
        "alt_km": 767.7760312799082,
        "timestamp": "2025-12-20T22:39:10.900056+00:00",
        "meta_object_name": "FENGYUN 1C DEB",
        "meta_object_id": "1999-025NV",
        "meta_epoch": "2025-12-20T06:30:21.647232",
        "meta_mean_motion": 14.50743202,
        "meta_eccentricity": 0.00799318,
        "meta_inclination": 98.2124,
        "meta_ra_of_asc_node": 274.3831,
        "meta_arg_of_pericenter": 143.8156,
        "meta_mean_anomaly": 216.8484,
        "meta_ephemeris_type": 0,
        "meta_classification_type": "U",
        "meta_norad_cat_id": 30044,
        "meta_element_set_no": 999,
        "meta_rev_at_epoch": 98148,
        "meta_bstar": 0.00099237092,
        "meta_mean_motion_dot": 4.023e-05,
        "meta_mean_motion_ddot": 0,
        "tle_line1": "1 30044U 99025NV  25354.27108388  .00004023  00000+0  99237-3 0  9993",
        "tle_line2": "2 30044  98.2124 274.3831 0079931 143.8156 216.8484 14.50743202981485"
      },
      "geometry": {
        "type": "Point",
        "coordinates": [
          -15.487992573263744,
          -81.23349667992171
        ]
      }
    },
    {
      "type": "Feature",
      "properties": {
        "norad_id": 30045,
        "name": "FENGYUN 1C DEB",
        "group": "fengyun-1c-debris",
        "lat": -60.82324147682869,
        "lon": 47.669289307634116,
        "alt_km": 886.6994610331076,
        "timestamp": "2025-12-20T22:39:10.900065+00:00",
        "meta_object_name": "FENGYUN 1C DEB",
        "meta_object_id": "1999-025NW",
        "meta_epoch": "2025-12-20T01:16:05.660256",
        "meta_mean_motion": 14.21662258,
        "meta_eccentricity": 0.00942211,
        "meta_inclination": 99.1782,
        "meta_ra_of_asc_node": 29.9112,
        "meta_arg_of_pericenter": 92.6355,
        "meta_mean_anomaly": 327.9819,
        "meta_ephemeris_type": 0,
        "meta_classification_type": "U",
        "meta_norad_cat_id": 30045,
        "meta_element_set_no": 999,
        "meta_rev_at_epoch": 96792,
        "meta_bstar": 0.0013996213,
        "meta_mean_motion_dot": 3.169e-05,
        "meta_mean_motion_ddot": 0,
        "tle_line1": "1 30045U 99025NW  25354.05284329  .00003169  00000+0  13996-2 0  9997",
        "tle_line2": "2 30045  99.1782  29.9112 0094221  92.6355 327.9819 14.21662258967921"
      },
      "geometry": {
        "type": "Point",
        "coordinates": [
          47.669289307634116,
          -60.82324147682869
        ]
      }
    },
    {
      "type": "Feature",
      "properties": {
        "norad_id": 30047,
        "name": "FENGYUN 1C DEB",
        "group": "fengyun-1c-debris",
        "lat": 28.19817971398748,
        "lon": -22.076007416263522,
        "alt_km": 990.8163882006374,
        "timestamp": "2025-12-20T22:39:10.900074+00:00",
        "meta_object_name": "FENGYUN 1C DEB",
        "meta_object_id": "1999-025NY",
        "meta_epoch": "2025-12-20T10:07:50.298816",
        "meta_mean_motion": 13.9436758,
        "meta_eccentricity": 0.01256901,
        "meta_inclination": 99.9193,
        "meta_ra_of_asc_node": 151.9807,
        "meta_arg_of_pericenter": 302.2967,
        "meta_mean_anomaly": 111.9379,
        "meta_ephemeris_type": 0,
        "meta_classification_type": "U",
        "meta_norad_cat_id": 30047,
        "meta_element_set_no": 999,
        "meta_rev_at_epoch": 96023,
        "meta_bstar": 0.00042519248,
        "meta_mean_motion_dot": 5.53e-06,
        "meta_mean_motion_ddot": 0,
        "tle_line1": "1 30047U 99025NY  25354.42210994  .00000553  00000+0  42519-3 0  9995",
        "tle_line2": "2 30047  99.9193 151.9807 0125690 302.2967 111.9379 13.94367580960236"
      },
      "geometry": {
        "type": "Point",
        "coordinates": [
          -22.076007416263522,
          28.19817971398748
        ]
      }
    },
    {
      "type": "Feature",
      "properties": {
        "norad_id": 30048,
        "name": "FENGYUN 1C DEB",
        "group": "fengyun-1c-debris",
        "lat": 74.16275989101902,
        "lon": -172.42840434096655,
        "alt_km": 1069.7220493465384,
        "timestamp": "2025-12-20T22:39:10.900083+00:00",
        "meta_object_name": "FENGYUN 1C DEB",
        "meta_object_id": "1999-025NZ",
        "meta_epoch": "2025-12-20T02:09:25.118784",
        "meta_mean_motion": 13.79897099,
        "meta_eccentricity": 0.01863273,
        "meta_inclination": 98.6662,
        "meta_ra_of_asc_node": 219.3113,
        "meta_arg_of_pericenter": 224.988,
        "meta_mean_anomaly": 292.88,
        "meta_ephemeris_type": 0,
        "meta_classification_type": "U",
        "meta_norad_cat_id": 30048,
        "meta_element_set_no": 999,
        "meta_rev_at_epoch": 95227,
        "meta_bstar": 0.0001717155,
        "meta_mean_motion_dot": 1.63e-06,
        "meta_mean_motion_ddot": 0,
        "tle_line1": "1 30048U 99025NZ  25354.08987406  .00000163  00000+0  17172-3 0  9991",
        "tle_line2": "2 30048  98.6662 219.3113 0186327 224.9880 292.8800 13.79897099952270"
      },
      "geometry": {
        "type": "Point",
        "coordinates": [
          -172.42840434096655,
          74.16275989101902
        ]
      }
    }
  ]
}